#cP2022  9 27  0  0  0.00000000      96 ORBIT IGb14 HLM  IGS
## 2229 172800.00000000   900.00000000 59849 0.0000000000000
+   32   G01G02G03G04G05G06G07G08G09G10G11G12G13G14G15G16G17
+        G18G19G20G21G22G23G24G25G26G27G28G29G30G31G32  0  0
+          0  0  0  0  0  0  0  0  0  0  0  0  0  0  0  0  0
+          0  0  0  0  0  0  0  0  0  0  0  0  0  0  0  0  0
+          0  0  0  0  0  0  0  0  0  0  0  0  0  0  0  0  0
++         2  2  2  2  1  2  2  2  2  2  2  1  2  2  2  2  2
++         2  2  2  2  2  2  2  1  1  2  2  2  2  2  2  0  0
++         0  0  0  0  0  0  0  0  0  0  0  0  0  0  0  0  0
++         0  0  0  0  0  0  0  0  0  0  0  0  0  0  0  0  0
++         0  0  0  0  0  0  0  0  0  0  0  0  0  0  0  0  0
%c G  cc GPS ccc cccc cccc cccc cccc ccccc ccccc ccccc ccccc
%c cc cc ccc ccc cccc cccc cccc cccc ccccc ccccc ccccc ccccc
%f  1.2500000  1.025000000  0.00000000000  0.000000000000000
%f  0.0000000  0.000000000  0.00000000000  0.000000000000000
%i    0    0    0    0      0      0      0      0         0
%i    0    0    0    0      0      0      0      0         0
/* FINAL ORBIT COMBINATION FROM WEIGHTED AVERAGE OF:        
/* cod emr esa gfz grg jpl mit ngs sio                      
/* REFERENCED TO IGS TIME (IGST) AND TO WEIGHTED MEAN POLE: 
/* PCV:IGS14_2223 OL/AL:FES2004  NONE     Y  ORB:CMB CLK:CMB
*  2022  9 27 10 30  0.00000000
PG01  21982.856508  13753.426826   6213.276304    276.905834  6  3     84       
PG02 -21182.591631 -15883.353104    761.408203   -644.569890  8     3  96       
PG03  12660.442917   9976.231778  21002.332276   -357.260016  5  4  5  79       
PG04  22365.911820   3136.228170  14060.013800   -112.499929  5  5  3  76       
PG05  -7928.089815 -20335.732882 -15223.692519    -98.222034  4  3  4  74       
PG06   1960.094893 -16406.656998  20835.762501    474.086021  4  5  3  70       
PG07  19835.859143    554.016976 -17464.752569    304.079641  7  6  4  74       
PG08  15135.287264   9104.554772 -19981.317796    -86.358593  6  4  4  93       
PG09  25406.399727  -6718.565780   3925.716814   -290.797131  5  4  5  72       
PG10 -11356.953475  21063.814634 -11030.923176     -5.056840  4  5     88       
PG11  -8189.527967 -21060.140748  13988.179340    -19.972806  7  4  6  75       
PG12 -11805.579751 -11337.819110  20674.216577   -284.900396  6  5     94       
PG13  -6135.663618 -14048.422685 -21872.882312    395.375590  4  5  2  75       
PG14  13262.503912 -19331.254427 -12369.870381   -100.332479  6  4  2  95       
PG15 -16354.392236  -8149.609814 -19806.593158    -25.613571  4  5  2  75       
PG16   1051.718961  24137.932584 -10762.658898   -525.154683  6  4  6  90       
PG17  20753.699771 -13308.827269  10395.269768    663.234692  5  3  3  25       
PG18 -18702.140013    697.108405 -18907.458657     34.479413  6  4  4  65       
PG19  12346.360026 -15208.635673  17577.023124    216.215618  5  4  2  75       
PG20  -1005.421976 -26588.743016  -2040.732888    483.037490  7  2  5  94       
PG21  21063.774732  16648.546062  -1860.367880    158.887230  7  4  3  94       
PG22  -8939.685489  16321.368929  19305.507619    335.313722  4  5  3  89       
PG23 -14688.554458  11964.481009 -18571.741860     -0.502223  3  4  4  68       
PG24 -22352.996166 -14662.416050   1439.961596    120.933503  6  6  5  98       
PG25 -15525.713314   2106.976846  21122.486535    376.434010  4  5  3  83       
PG26  -3079.763857  26201.625196    -84.159327    230.245285  4  6  2  76       
PG27   2486.013502  15051.288286 -21928.861458    206.509664  4  4  6  97       
PG28   9201.998412 -24779.186049  -3198.950367    335.112159  7  5  2  67       
PG29 -25882.878903   3748.069405   4838.111824   -555.019947  5  5  5  83       
PG30  11946.087828 -10354.773666 -21265.372535   -537.160708  6  5  3  85       
PG31  -1785.727136  17209.363367  19876.723842   -194.813262  4  5  4  87       
PG32 -17783.782365  15565.149239  12071.089389   -245.760620  4  4  5  72       
*  2022  9 27 10 45  0.00000000
PG01  22336.591603  14234.805580   3391.403310    276.900164  6  3     78       
PG02 -20893.556857 -15986.456265   3624.764405   -644.568389  7     4  65       
PG03  12243.692755  12306.518536  20004.620640   -357.264746  6  3  5  87       
PG04  20802.740480   3880.383359  16114.899926   -112.494667  5  5  3  67       
PG05  -7570.228437 -21901.698179 -13041.311664    -98.223473  5  3  4  81       
PG06   3875.374305 -14936.784978  21665.532756    474.096749  4  5  3  55       
PG07  21260.694338   1901.945125 -15687.921511    304.076599  7  6  4  84       
PG08  13020.700321  10074.951770 -20951.374694    -86.359598  5  4  5  82       
PG09  24940.085412  -6239.078268   6680.825670   -290.792577  5  4  4  96       
PG10 -11352.143269  19619.996188 -13434.264743     -5.058058  4  5     97       
PG11  -6785.559954 -20055.909033  16058.973443    -19.975909  5  4  6  42       
PG12 -11212.803836 -13618.633480  19623.297694   -284.905997  6  4     54       
PG13  -3736.764538 -14641.557333 -22009.671051    395.382151  4  5  3  71       
PG14  13206.191982 -17765.819874 -14587.703726   -100.329647  6  4  2  86       
PG15 -14447.446815  -9322.762384 -20743.895132    -25.610940  4  5  2  86       
PG16    570.946462  25111.891149  -8152.835652   -525.155707  6  4  6  85       
PG17  21740.411814 -13443.975242   7764.646986    663.237871  5  3  3  13       
PG18 -20219.063526   -705.066087 -17287.596544     34.467720  7  5  4  79       
PG19  14268.464143 -15578.325292  15702.318752    216.220316  5  3  2  54       
PG20   -723.033436 -26666.464188    767.747291    483.034624  7  2  5  85       
PG21  20592.581422  16576.448567  -4642.630467    158.886745  7  4  3  87       
PG22 -10940.029878  16787.330796  17766.384544    335.319808  4  5  3  83       
PG23 -14543.303184   9763.430725 -19935.940443     -0.502625  4  4  4  85       
PG24 -22221.629805 -14931.408693  -1338.578300    120.921323  6  6  5  79       
PG25 -15225.719634   -378.020076  21459.972516    376.437636  4  5  4  79       
PG26  -3415.580899  26008.987283   2734.527474    230.246611  3  5  2  73       
PG27    202.688507  15902.988571 -21422.821064    206.505148  4  4  5  85       
PG28   9280.343875 -24164.038744  -5987.903280    335.109206  7  5  2  76       
PG29 -25256.489053   3356.462238   7608.098376   -555.022894  5  5  5  54       
PG30  13810.100160  -8786.737305 -20862.804694   -537.160817  6  5  3  77       
PG31  -3679.494811  15780.321867  20815.508452   -194.814356  4  5  4  84       
PG32 -19008.805691  15806.584736   9589.678229   -245.771030  4  3  6  75       
*  2022  9 27 11  0  0.00000000
PG01  22457.016947  14504.886926    512.052955    276.894479  6  3  2  82       
PG02 -20337.782421 -15938.283322   6425.770322   -644.567100  6     4  95       
PG03  11965.657182  14521.638106  18659.810058   -357.269490  6  3  5  80       
PG04  19080.927251   4790.563860  17893.666701   -112.489397  5  4  3  70       
PG05  -7304.962223 -23226.736733 -10635.276064    -98.224941  5  3  4  73       
PG06   5929.539101 -13535.858544  22124.149648    474.107369  4  5  4  72       
PG07  22571.536609   3045.279656 -13638.948088    304.073582  7  5  4  54       
PG08  10877.483603  11196.611193 -21564.372856    -86.361629  5  4  5  81       
PG09  24224.834456  -5601.291412   9320.969753   -290.788011  5  4  4  68       
PG10 -11402.640228  17917.357850 -15600.829847     -5.059362  3  5    100       
PG11  -5158.140288 -18992.165184  17853.835385    -19.979041  4  5  6  74       
PG12 -10763.692103 -15787.261872  18228.026987   -284.911498  6  4     54       
PG13  -1376.906976 -15362.069564 -21773.553853    395.388832  5  5  3  91       
PG14  13199.131522 -15964.824467 -16553.095439   -100.326824  6  5  2  77       
PG15 -12527.472211 -10633.666588 -21339.228280    -25.607814  5  5  2  88       
PG16    192.554350  25810.115558  -5400.301296   -525.156416  6  4  6  83       
PG17  22438.561464 -13520.028709   5002.720226    663.240932  5  3  3  43       
PG18 -21647.610373  -1904.617249 -15371.945377     34.456043  7  5  3  65       
PG19  15948.946681 -15976.047424  13550.000389    216.224803  6  3  2  58       
PG20   -421.977293 -26444.233870   3563.201001    483.031761  7  2  5  91       
PG21  19848.381692  16378.682835  -7347.387956    158.885911  7  4  4  76       
PG22 -12739.635753  17293.057131  15928.980229    335.325933  4  5  2  76       
PG23 -14507.864480   7423.869709 -20956.243218     -0.502999  4  4  4  55       
PG24 -21838.663550 -15048.137003  -4094.731100    120.909109  6  6  5  88       
PG25 -15049.922326  -2889.242014  21417.833574    376.441260  4  5  5  83       
PG26  -3751.126247  25514.642463   5505.143685    230.247946  3  5  2  72       
PG27  -1965.258168  16845.375604 -20553.145997    206.500609  4  4  5  74       
PG28   9339.578668 -23245.890187  -8673.839552    335.106188  7  6  3  88       
PG29 -24365.869072   2821.949475  10247.576538   -555.025918  6  5  5  81       
PG30  15691.922748  -7350.566698 -20099.519624   -537.160971  6  5  3  87       
PG31  -5709.089334  14399.513272  21388.712593   -194.815669  5  5  4  89       
PG32 -19958.820367  15985.264608   6942.430031   -245.781419  5  3  6  64       
EOF
